STARLINK-2281           
1 48015U 21024AQ  21119.33335648 -.00000038  00000-0  41459-5 0  9996
2 48015  53.0491  25.4445 0001111  86.7371 354.9079 15.73219298  1782
STARLINK-2284           
1 48016U 21024AR  21119.33335648  .00001313  00000-0  13770-4 0  9997
2 48016  53.0491  25.4436 0001027  87.1738 355.1590 15.73198571  1782
STARLINK-2239           
1 48017U 21024AS  21119.33335648  .00000638  00000-0  89520-5 0  9994
2 48017  53.0490  25.4419 0001139  93.2110 349.6606 15.73246528  1781
STARLINK-2282           
1 48018U 21024AT  21119.33335648  .00000775  00000-0  99371-5 0  9992
2 48018  53.0489  25.4402 0001189  97.3872 346.2092 15.73210213  1736
STARLINK-2285           
1 48019U 21024AU  21119.33335648  .00001387  00000-0  14289-4 0  9997
2 48019  53.0490  25.4392 0000846  97.8900 346.3470 15.73204304  1783
STARLINK-2294           
1 48020U 21024AV  21119.33335648  .00002458  00000-0  21900-4 0  9997
2 48020  53.0490  25.4383 0000818  93.3163 351.5309 15.73221847  1786
STARLINK-2301           
1 48021U 21024AW  21119.33335648 -.00098821  00000-0 -70548-3 0  9990
2 48021  53.0489  25.4360 0001065  90.4572 355.0525 15.73278658  1788
STARLINK-2298           
1 48022U 21024AX  21119.33335648 -.01074535  00000-0 -14379-1 0  9996
2 48022  53.0497  25.7661 0000994  81.4440 231.6601 15.59958724  1775
STARLINK-2292           
1 48023U 21024AY  21119.33335648 -.01070463  00000-0 -16139-1 0  9999
2 48023  53.0487  25.8559 0001554 155.8325  86.8535 15.56807984  1777
STARLINK-2302           
1 48024U 21024AZ  21119.33335648 -.00027884  00000-0 -19472-3 0  9993
2 48024  53.0491  25.4335 0001196  96.7879 350.6496 15.73218515  1784
STARLINK-2318           
1 48025U 21024BA  21119.33335648  .00000377  00000-0  71070-5 0  9994
2 48025  53.0489  25.4312 0001369  91.3408 356.7035 15.73210586  1784
STARLINK-2278           
1 48026U 21024BB  21119.33335648 -.01165768  00000-0 -31677-1 0  9999
2 48026  53.0507  27.0382 0001188  62.8014 321.8905 15.39900001  1774
STARLINK-2300           
1 48027U 21024BC  21119.33335648  .00227152  00000-0  30969-2 0  9997
2 48027  53.0486  25.8347 0003859 230.0173  20.2817 15.56229566  1771
STARLINK-2264           
1 48028U 21024BD  21119.33335648  .00001017  00000-0  11638-4 0  9992
2 48028  53.0488  25.4271 0001155  86.9205   2.9947 15.73254717  1784
STARLINK-2299           
1 48029U 21024BE  21119.33335648 -.01078698  00000-0 -14273-1 0  9990
2 48029  53.0497  25.7429 0001009  76.8694 246.6462 15.60260700  1785
STARLINK-2268           
1 48030U 21024BF  21119.33335648 -.01091735  00000-0 -29528-1 0  9998
2 48030  53.0507  27.0305 0001107 119.0881 268.6056 15.39858454  1771
STARLINK-2267           
1 48031U 21024BG  21119.33335648  .00000007  00000-0  44620-5 0  9992
2 48031  53.0489  25.4234 0001126  90.2870   1.4977 15.73243149  1731
STARLINK-2297           
1 48032U 21024BH  21119.33335648  .00000015  00000-0  45158-5 0  9999
2 48032  53.0488  25.4218 0001179  89.0452   3.4266 15.73252972  1785
STARLINK-2286           
1 48033U 21024BJ  21119.33335648 -.01079658  00000-0 -14411-1 0  9996
2 48033  53.0498  25.7485 0000992  84.4440 237.3530 15.60036692  1781
STARLINK-2288           
1 48034U 21024BK  21119.33335648 -.01086512  00000-0 -14619-1 0  9994
2 48034  53.0498  25.7577 0001044  79.9250 238.1656 15.59844775  1775
STARLINK-2287           
1 48035U 21024BL  21119.33335648 -.00000570  00000-0  36120-6 0  9999
2 48035  53.0490  25.4181 0001198  90.6664   3.7555 15.73215434  1735
STARLINK-2295           
1 48036U 21024BM  21119.33335648 -.00856399  00000-0 -11690-1 0  9999
2 48036  53.0497  25.7411 0001129 149.4628 161.7282 15.59280712  1770
BCCSAT 1                
1 48041U 21022AK  21119.50940099  .00001494  00000-0  10524-3 0  9997
2 48041  97.5634  22.6883 0017843 106.4422 253.8740 15.06421769  4480
ONEWEB-0115             
1 48042U 21025A   21119.33335648 -.01118345  00000-0 -61884-1 0  9990
2 48042  87.4476 337.7047 0008451 132.5021 299.5158 15.16666868  1721
ONEWEB-0152             
1 48043U 21025B   21119.33335648 -.01153155  00000-0 -74583-1 0  9999
2 48043  87.4346 337.7415 0011142 121.6629   1.4339 15.11187266  1727
ONEWEB-0153             
1 48044U 21025C   21119.33335648 -.01161661  00000-0 -83513-1 0  9994
2 48044  87.4321 337.7817 0011315 144.7318  94.5224 15.07364033  1731
ONEWEB-0154             
1 48045U 21025D   21119.33335648 -.01177886  00000-0 -92018-1 0  9991
2 48045  87.4164 337.7944 0008145 131.6476 247.6498 15.04373973  1728
ONEWEB-0116             
1 48046U 21025E   21119.33335648 -.01137434  00000-0 -63767-1 0  9996
2 48046  87.4481 337.7002 0008226 131.3696 272.9081 15.16260388  1757
ONEWEB-0150             
1 48047U 21025F   21119.33335648 -.01138319  00000-0 -69635-1 0  9990
2 48047  87.4405 337.7271 0010027 118.1919 114.9311 15.13158640  1749
ONEWEB-0107             
1 48048U 21025G   21119.33335648 -.01168478  00000-0 -82796-1 0  9993
2 48048  87.4281 337.7623 0012117 140.8311 127.4505 15.07900628  1730
ONEWEB-0101             
1 48049U 21025H   21119.33335648 -.01182546  00000-0 -95934-1 0  9994
2 48049  87.4103 337.8068 0010290 124.3634 144.5732 15.02947833  1751
ONEWEB-0113             
1 48050U 21025J   21119.33335648 -.01168640  00000-0 -74064-1 0  9996
2 48050  87.4356 337.7349 0010536 118.5268  47.9732 15.11965190  1746
ONEWEB-0112             
1 48051U 21025K   21119.33335648 -.01145910  00000-0 -66193-1 0  9996
2 48051  87.4427 337.7126 0008073 130.6500 225.0359 15.15232996  1756
ONEWEB-0156             
1 48052U 21025L   21119.33335648 -.00557940  00000-0 -38281-1 0  9993
2 48052  87.4333 337.7679 0011772 140.1138 163.4416 15.08406213  1744
ONEWEB-0161             
1 48053U 21025M   21119.33335648 -.01182554  00000-0 -94173-1 0  9992
2 48053  87.4124 337.8037 0009218 129.3809 211.9223 15.03656598  1763
ONEWEB-0158             
1 48054U 21025N   21119.33335648 -.01037491  00000-0 -56551-1 0  9990
2 48054  87.4487 337.6938 0008921 133.9592 338.2095 15.17437846  1784
ONEWEB-0157             
1 48055U 21025P   21119.33335648 -.01122259  00000-0 -68746-1 0  9997
2 48055  87.4484 337.7348 0010225 117.5261  87.0807 15.13066870  1724
ONEWEB-0162             
1 48056U 21025Q   21119.33335648 -.01172540  00000-0 -94126-1 0  9997
2 48056  87.4174 337.7979 0009455 126.7583 181.3986 15.03326429  1749
ONEWEB-0155             
1 48057U 21025R   21119.33335648 -.01141269  00000-0 -58551-1 0  9994
2 48057  87.4500 337.6847 0011759 133.1956  88.4700 15.19299155  1745
ONEWEB-0149             
1 48058U 21025S   21119.33335648 -.01162954  00000-0 -85320-1 0  9993
2 48058  87.4272 337.7775 0010063 144.3371  46.5657 15.06638459  1718
ONEWEB-0148             
1 48059U 21025T   21119.33335648 -.01173136  00000-0 -78029-1 0  9996
2 48059  87.4298 337.7362 0011455 128.9868 283.5823 15.10224631  1743
ONEWEB-0160             
1 48060U 21025U   21119.33335648 -.01144914  00000-0 -85865-1 0  9996
2 48060  87.4207 337.7888 0007039 130.8271 324.0104 15.05813918  1728
ONEWEB-0163             
1 48061U 21025V   21119.33335648 -.01119023  00000-0 -56587-1 0  9999
2 48061  87.4506 337.6675 0012377 131.8996 114.1565 15.20204611  1742
ONEWEB-0159             
1 48062U 21025W   21119.33335648 -.01124836  00000-0 -61249-1 0  9999
2 48062  87.4452 337.7160 0008456 118.9440 215.3772 15.17244360  1752
ONEWEB-0164             
1 48063U 21025X   21119.33335648 -.01138519  00000-0 -76898-1 0  9999
2 48063  87.4358 337.7624 0012068 131.1698 250.3686 15.09569809  1740
ONEWEB-0167             
1 48064U 21025Y   21119.33335648 -.01138509  00000-0 -82965-1 0  9991
2 48064  87.4239 337.7751 0009621 144.5630  18.9121 15.06827818  1741
ONEWEB-0166             
1 48065U 21025Z   21119.33335648 -.01119604  00000-0 -56185-1 0  9992
2 48065  87.4551 337.6747 0012745 131.0022 143.0655 15.20461151  1786
ONEWEB-0151             
1 48066U 21025AA  21119.33335648 -.01132122  00000-0 -66094-1 0  9993
2 48066  87.4453 337.7240 0008360 124.2918 207.4947 15.14821112  1759
ONEWEB-0170             
1 48067U 21025AB  21119.33335648 -.01151743  00000-0 -79115-1 0  9992
2 48067  87.4337 337.7552 0011711 135.9188 206.6569 15.08996277  1769
ONEWEB-0168             
1 48068U 21025AC  21119.33335648 -.01162814  00000-0 -88592-1 0  9993
2 48068  87.4200 337.7848 0008396 135.9081 299.7516 15.05262731  1723
ONEWEB-0173             
1 48069U 21025AD  21119.33335648 -.01135258  00000-0 -64457-1 0  9990
2 48069  87.4447 337.7041 0008077 126.2136 252.7724 15.15812395  1753
ONEWEB-0171             
1 48070U 21025AE  21119.33335648 -.01141013  00000-0 -59918-1 0  9994
2 48070  87.4498 337.6808 0011336 133.8177  50.3519 15.18501581  1728
ONEWEB-0172             
1 48071U 21025AF  21119.33335648 -.01144659  00000-0 -68051-1 0  9992
2 48071  87.4424 337.7081 0008829 121.4178 175.6922 15.14204552  1744
ONEWEB-0174             
1 48072U 21025AG  21119.33335648 -.01122819  00000-0 -51275-1 0  9997
2 48072  87.4560 337.6438 0013329 112.7526 335.6966 15.23648782  1723
ONEWEB-0175             
1 48073U 21025AH  21119.33335648 -.01181335  00000-0 -88437-1 0  9996
2 48073  87.4252 337.8007 0009042 140.6798 343.3723 15.05955075  1727
ONEWEB-0177             
1 48074U 21025AJ  21119.33335648 -.01197060  00000-0 -55848-1 0  9999
2 48074  87.4549 337.6416 0013329 115.3317 289.7379 15.22640589  1740
ONEWEB-0178             
1 48075U 21025AK  21119.33335648 -.01106504  00000-0 -53906-1 0  9996
2 48075  87.4537 337.6581 0014109 118.3519 219.3522 15.21408555  1737
ONEWEB-0108             
1 48076U 21025AL  21119.33335648 -.01107478  00000-0 -53588-1 0  9994
2 48076  87.4552 337.6651 0012875 116.8699 251.1712 15.21664156  1728
ONEWEB-0169             
1 48077U 21025AM  21119.33335648 -.01161178  00000-0 -75642-1 0  9997
2 48077  87.4437 337.7547 0011914 126.8169 324.6351 15.10938409  1753
